{"fetched_at":"2026-03-30T06:02:59Z","count":15439,"tles":[{"name":"STARLINK-35648","line1":"1 66482U 25262AC  26087.68984178  .00021925  00000+0  80322-3 0  9993","line2":"2 66482  43.0000 188.7374 0001089 285.2823  74.7908 15.27607849 21659","category":"Starlink"}]}